{
    "links": {
        "self": "http://www.neowsapp.com/rest/v1/neo/3789122?api_key=iIulBulltgU6a56xZRHN4H3l9WmuAYTsLGpBGhQ2"
    },
    "id": "3789122",
    "neo_reference_id": "3789122",
    "name": "(2017 VC2)",
    "designation": "2017 VC2",
    "nasa_jpl_url": "http://ssd.jpl.nasa.gov/sbdb.cgi?sstr=3789122",
    "absolute_magnitude_h": 20.7,
    "estimated_diameter": {
        "kilometers": {
            "estimated_diameter_min": 0.1925550782,
            "estimated_diameter_max": 0.4305662442
        },
        "meters": {
            "estimated_diameter_min": 192.5550781879,
            "estimated_diameter_max": 430.566244241
        },
        "miles": {
            "estimated_diameter_min": 0.1196481415,
            "estimated_diameter_max": 0.2675413778
        },
        "feet": {
            "estimated_diameter_min": 631.7424027221,
            "estimated_diameter_max": 1412.6189567557
        }
    },
    "is_potentially_hazardous_asteroid": false,
    "close_approach_data": [
        {
            "close_approach_date": "2017-11-22",
            "close_approach_date_full": "2017-Nov-22 08:50",
            "epoch_date_close_approach": 1511340600000,
            "relative_velocity": {
                "kilometers_per_second": "35.0373153037",
                "kilometers_per_hour": "126134.3350933924",
                "miles_per_hour": "78374.9706028915"
            },
            "miss_distance": {
                "astronomical": "0.1637555941",
                "lunar": "63.7009261049",
                "kilometers": "24497488.077944567",
                "miles": "15222033.2365743446"
            },
            "orbiting_body": "Earth"
        }
    ],
    "orbital_data": {
        "orbit_id": "9",
        "orbit_determination_date": "2017-12-11 06:20:49",
        "first_observation_date": "2017-11-10",
        "last_observation_date": "2017-11-28",
        "data_arc_in_days": 18,
        "observations_used": 71,
        "orbit_uncertainty": "8",
        "minimum_orbit_intersection": ".146203",
        "jupiter_tisserand_invariant": "2.562",
        "epoch_osculation": "2458072.5",
        "eccentricity": ".8218093603738348",
        "semi_major_axis": "2.445635873510851",
        "inclination": "56.19352135868484",
        "ascending_node_longitude": "232.8625091756243",
        "orbital_period": "1396.966916502803",
        "perihelion_distance": ".4357894205935939",
        "perihelion_argument": "296.4423973734268",
        "aphelion_distance": "4.455482326428109",
        "perihelion_time": "2458130.402228202971",
        "mean_anomaly": "345.0785284126464",
        "mean_motion": ".2577011636762535",
        "equinox": "J2000",
        "orbit_class": {
            "orbit_class_type": "APO",
            "orbit_class_description": "Near-Earth asteroid orbits which cross the Earth’s orbit similar to that of 1862 Apollo",
            "orbit_class_range": "a (semi-major axis) > 1.0 AU; q (perihelion) < 1.017 AU"
        }
    },
    "is_sentry_object": false
}